#aV2015  1 21  0  0  0.00000000     288 DD+AD WGS84 FIT  NGA
## 1828 259200.00000000   300.00000000 57043 0.0000000000000
+   31     1  2  3  4  5  6  7  8  9 10 11 12 13 14 15 16 17
+         18 19 20 21 22 23 24 25 27 28 29 30 31 32  0  0  0
+          0  0  0  0  0  0  0  0  0  0  0  0  0  0  0  0  0
+          0  0  0  0  0  0  0  0  0  0  0  0  0  0  0  0  0
+          0  0  0  0  0  0  0  0  0  0  0  0  0  0  0  0  0
++         2  2  2  2  2  2  2  2  2  2  2  2  2  2  2  2  2
++         2  2  2  2  2  2  2  2  2  2  2  2  2  2  0  0  0
++         0  0  0  0  0  0  0  0  0  0  0  0  0  0  0  0  0
++         0  0  0  0  0  0  0  0  0  0  0  0  0  0  0  0  0
++         0  0  0  0  0  0  0  0  0  0  0  0  0  0  0  0  0
%c cc cc ccc ccc cccc cccc cccc cccc ccccc ccccc ccccc ccccc
%c cc cc ccc ccc cccc cccc cccc cccc ccccc ccccc ccccc ccccc
%f  0.0000000  0.000000000  0.00000000000  0.000000000000000
%f  0.0000000  0.000000000  0.00000000000  0.000000000000000
%i    0    0    0    0      0      0      0      0         0
%i    0    0    0    0      0      0      0      0         0
/*      NGA, ST. LOUIS,MO.                                  
/*   EPHEMERIS COMPUTED FROM  1 DAYS OF DATA                
/*   EPOCHA SMOOTHER                                       
/* CCCCCCCCCCCCCCCCCCCCCCCCCCCCCCCCCCCCCCCCCCCCCCCCCCCCCCCCC
*  2015  1 21  7 35  0.00000000
P  1  13874.682951  -7590.536224  21263.743606     -9.935292                    
V  1   4545.168260  26766.492122   6736.748939      0.004464                    
P  2 -13862.062678 -17451.579298 -14459.008898    543.136726                    
V  2  -1050.349622 -18919.867210  22828.531220      0.022769                    
P  3  22691.558304 -12146.276682   6663.563590    161.898826                    
V  3  -4912.434640   7384.729533  30159.989500      0.239871                    
P  4  15924.852097   4261.077937  20559.002389     -5.950006                    
V  4   3557.292388  26623.077472  -7889.145915     -0.005567                    
P  5 -17051.965461  -4684.964698 -19923.248739   -289.984665                    
V  5  18853.117713 -16728.349341 -12058.955377      0.051735                    
P  6  -6210.098539 -25632.401649  -3229.816450     57.629295                    
V  6   2085.610955  -4455.471522  31420.406536      0.110783                    
P  7   8082.997571 -19830.547999 -15380.254665    433.394618                    
V  7   4472.147857  19416.946501 -22887.594299      0.033366                    
P  8  11323.593567  17187.297804 -16904.903849     17.227508                    
V  8   -364.155972  21593.723208  20834.435377      0.002173                    
P  9  11901.799088 -11174.310156 -20959.457228    -61.712012                    
V  9  24521.159676  10346.771616   8401.724251     -0.118112                    
P 10   -242.087327 -18055.062836 -19721.895866   -159.704886                    
V 10  20204.428402 -13823.067375  13076.530322     -0.017187                    
P 11  17320.236062  -1031.590899  19618.273355   -552.313606                    
V 11  11083.708615  23926.849506  -8160.711602     -0.026360                    
P 12 -22968.026292   9091.725603   9383.227219    263.022918                    
V 12   8615.121538  -8659.880696  29440.966139      0.030412                    
P 13 -23008.734296 -13082.748690  -1300.068596    -80.765682                    
V 13   2446.201828  -1491.332166 -32097.170834     -0.035527                    
P 14   7274.008743  17771.766925  18642.761464     94.853987                    
V 14 -21365.316803  -8938.562380  16927.631843     -0.035280                    
P 15 -24952.860351  -1215.077585   9385.575087   -227.577247                    
V 15 -10343.811716  -6774.815574 -27811.470901     -0.022294                    
P 16  16377.288947   4960.114315 -20477.087475   -163.195017                    
V 16 -20724.425856  15187.086438 -12572.662727      0.031947                    
P 17  -5430.940840 -17239.035157  19823.945489   -151.197106                    
V 17  22720.017648   9084.086462  14114.175587     -0.021176                    
P 18 -12704.662393  20829.417099  10584.179857    373.803658                    
V 18 -12243.608758   5495.293489 -27021.478386      0.027076                    
P 19  24843.308707   7986.938679   5935.201041   -497.461789                    
V 19   5870.039891   5365.102752 -30443.840696     -0.014975                    
P 20  15502.563231 -20650.869380  -6286.539813    280.987784                    
V 20   8290.896659  -2504.196260  29623.698524      0.041697                    
P 21  -3925.423207  23603.172384 -10410.075268   -407.889935                    
V 21  -5969.639039 -13617.515809 -27303.275251     -0.041695                    
P 22   -986.225827  19067.102022  18614.399197    309.648069                    
V 22 -19325.402859  13330.407980 -15023.285704      0.039103                    
P 23  21258.383966  -3574.544610 -15657.693641    -83.189263                    
V 23  17827.316186   9237.899380  21489.420166     -0.026502                    
P 24 -14815.274518   4151.661377  21620.315257    -42.138682                    
V 24  -4746.132327 -27125.207145   2088.799614     -0.006380                    
P 25 -19405.549257  17825.936076  -2665.991520      1.848925                    
V 25  -4072.357018    186.652836  31984.248036     -0.025154                    
P 27  23015.973390  12479.511325  -4752.094557     45.812727                    
V 27  -6508.883634    169.206152 -31052.668159      0.026800                    
P 28   7087.322767 -19059.067762  17656.309322    413.936392                    
V 28  18035.109808 -11157.349903 -20097.969183      0.026753                    
P 29 -15132.891061   8231.817336 -20172.387975    587.243058                    
V 29 -22946.507155 -11536.025478  12523.330478      0.023545                    
P 30   2210.204997 -25788.367416  -5849.142481    -86.343345                    
V 30   3401.480352   7205.996875 -30540.155317      0.002979                    
P 31   6915.463744  24743.310729  -5850.387330    325.042656                    
V 31  -1608.165379   7917.419039  31157.034022     -0.007808                    
P 32  20570.454534    497.806037  16481.108541   -242.652450                    
V 32 -16250.387741  13824.847316  20401.547612      0.087768                    
EOF
